{"type": "FeatureCollection", "features": [ {"type": "Feature", "properties": {"norad_id": 31482, "name": "FENGYUN 1C DEB", "group": "fengyun-1c-debris", "lat": 77.7517696247625, "lon": -56.35206893738187, "alt_km": 818.1228423050261, "timestamp": "2025-12-08T10:52:03.230257+00:00", "meta": {"OBJECT_NAME": "FENGYUN 1C DEB", "OBJECT_ID": "1999-025BVW", "EPOCH": "2025-12-07T11:47:18.197376", "MEAN_MOTION": 14.35622064, "ECCENTRICITY": 0.00889602, "INCLINATION": 98.3822, "RA_OF_ASC_NODE": 345.4938, "ARG_OF_PERICENTER": 298.1144, "MEAN_ANOMALY": 215.2779, "EPHEMERIS_TYPE": 0, "CLASSIFICATION_TYPE": "U", "NORAD_CAT_ID": 31482, "ELEMENT_SET_NO": 999, "REV_AT_EPOCH": 97054, "BSTAR": 0.0013190515, "MEAN_MOTION_DOT": 3.936e-05, "MEAN_MOTION_DDOT": 0}, "tle": {"line1": "1 31482U 99025BVW 25341.49118284  .00003936  00000+0  13191-2 0  9992", "line2": "2 31482  98.3822 345.4938 0088960 298.1144 215.2779 14.35622064970549"}}, "geometry": {"type": "Point", "coordinates": [-56.35206893738187, 77.7517696247625]}}, {"type": "Feature", "properties": {"norad_id": 31483, "name": "FENGYUN 1C DEB", "group": "fengyun-1c-debris", "lat": -49.33905777482874, "lon": 96.04157657204321, "alt_km": 759.8485533832654, "timestamp": "2025-12-08T10:52:03.230267+00:00", "meta": {"OBJECT_NAME": "FENGYUN 1C DEB", "OBJECT_ID": "1999-025BVX", "EPOCH": "2025-12-07T01:51:19.055232", "MEAN_MOTION": 14.1592818, "ECCENTRICITY": 0.01190457, "INCLINATION": 102.5039, "RA_OF_ASC_NODE": 289.0904, "ARG_OF_PERICENTER": 235.255, "MEAN_ANOMALY": 187.5643, "EPHEMERIS_TYPE": 0, "CLASSIFICATION_TYPE": "U", "NORAD_CAT_ID": 31483, "ELEMENT_SET_NO": 999, "REV_AT_EPOCH": 94626, "BSTAR": 0.0047649332, "MEAN_MOTION_DOT": 9.996e-05, "MEAN_MOTION_DDOT": 0}, "tle": {"line1": "1 31483U 99025BVX 25341.07730388  .00009996  00000+0  47649-2 0  9999", "line2": "2 31483 102.5039 289.0904 0119045 235.2550 187.5643 14.15928180946265"}}, "geometry": {"type": "Point", "coordinates": [96.04157657204321, -49.33905777482874]}}, {"type": "Feature", "properties": {"norad_id": 31484, "name": "FENGYUN 1C DEB", "group": "fengyun-1c-debris", "lat": 77.48362147228147, "lon": -153.26775824210452, "alt_km": 704.6536850161237, "timestamp": "2025-12-08T10:52:03.230277+00:00", "meta": {"OBJECT_NAME": "FENGYUN 1C DEB", "OBJECT_ID": "1999-025BVY", "EPOCH": "2025-12-04T02:08:44.405376", "MEAN_MOTION": 14.49883336, "ECCENTRICITY": 0.00826208, "INCLINATION": 101.8049, "RA_OF_ASC_NODE": 271.0436, "ARG_OF_PERICENTER": 175.5748, "MEAN_ANOMALY": 184.6182, "EPHEMERIS_TYPE": 0, "CLASSIFICATION_TYPE": "U", "NORAD_CAT_ID": 31484, "ELEMENT_SET_NO": 999, "REV_AT_EPOCH": 64112, "BSTAR": 0.011456506, "MEAN_MOTION_DOT": 0.00046489, "MEAN_MOTION_DDOT": 0}, "tle": {"line1": "1 31484U 99025BVY 25338.08940284  .00046489  00000+0  11457-1 0  9990", "line2": "2 31484 101.8049 271.0436 0082620 175.5748 184.6182 14.49883336641126"}}, "geometry": {"type": "Point", "coordinates": [-153.26775824210452, 77.48362147228147]}}, {"type": "Feature", "properties": {"norad_id": 31485, "name": "FENGYUN 1C DEB", "group": "fengyun-1c-debris", "lat": 74.21251403258681, "lon": 115.57561442135336, "alt_km": 1216.4530803923562, "timestamp": "2025-12-08T10:52:03.230287+00:00", "meta": {"OBJECT_NAME": "FENGYUN 1C DEB", "OBJECT_ID": "1999-025BVZ", "EPOCH": "2025-12-07T11:11:04.851168", "MEAN_MOTION": 13.40008154, "ECCENTRICITY": 0.04457292, "INCLINATION": 102.7189, "RA_OF_ASC_NODE": 167.3498, "ARG_OF_PERICENTER": 330.2838, "MEAN_ANOMALY": 27.3623, "EPHEMERIS_TYPE": 0, "CLASSIFICATION_TYPE": "U", "NORAD_CAT_ID": 31485, "ELEMENT_SET_NO": 999, "REV_AT_EPOCH": 90374, "BSTAR": 0.0045276594, "MEAN_MOTION_DOT": 4.349e-05, "MEAN_MOTION_DDOT": 0}, "tle": {"line1": "1 31485U 99025BVZ 25341.46602837  .00004349  00000+0  45277-2 0  9993", "line2": "2 31485 102.7189 167.3498 0445729 330.2838  27.3623 13.40008154903749"}}, "geometry": {"type": "Point", "coordinates": [115.57561442135336, 74.21251403258681]}}, {"type": "Feature", "properties": {"norad_id": 31487, "name": "FENGYUN 1C DEB", "group": "fengyun-1c-debris", "lat": 25.705237565231187, "lon": 143.33760542677683, "alt_km": 869.7601380635033, "timestamp": "2025-12-08T10:52:03.230297+00:00", "meta": {"OBJECT_NAME": "FENGYUN 1C DEB", "OBJECT_ID": "1999-025BWB", "EPOCH": "2025-12-05T06:17:59.588736", "MEAN_MOTION": 13.97683176, "ECCENTRICITY": 0.0119984, "INCLINATION": 102.4135, "RA_OF_ASC_NODE": 145.1269, "ARG_OF_PERICENTER": 324.2493, "MEAN_ANOMALY": 215.8967, "EPHEMERIS_TYPE": 0, "CLASSIFICATION_TYPE": "U", "NORAD_CAT_ID": 31487, "ELEMENT_SET_NO": 999, "REV_AT_EPOCH": 94307, "BSTAR": 0.0023273738, "MEAN_MOTION_DOT": 3.422e-05, "MEAN_MOTION_DDOT": 0}, "tle": {"line1": "1 31487U 99025BWB 25339.26249524  .00003422  00000+0  23274-2 0  9994", "line2": "2 31487 102.4135 145.1269 0119984 324.2493 215.8967 13.97683176943070"}}, "geometry": {"type": "Point", "coordinates": [143.33760542677683, 25.705237565231187]}}, {"type": "Feature", "properties": {"norad_id": 31491, "name": "FENGYUN 1C DEB", "group": "fengyun-1c-debris", "lat": -71.56863550186328, "lon": -79.67385130591745, "alt_km": 803.8084913525145, "timestamp": "2025-12-08T10:52:03.230308+00:00", "meta": {"OBJECT_NAME": "FENGYUN 1C DEB", "OBJECT_ID": "1999-025BWE", "EPOCH": "2025-12-06T04:59:33.394560", "MEAN_MOTION": 14.1718589, "ECCENTRICITY": 0.00532624, "INCLINATION": 99.3042, "RA_OF_ASC_NODE": 248.5122, "ARG_OF_PERICENTER": 286.6061, "MEAN_ANOMALY": 72.9267, "EPHEMERIS_TYPE": 0, "CLASSIFICATION_TYPE": "U", "NORAD_CAT_ID": 31491, "ELEMENT_SET_NO": 999, "REV_AT_EPOCH": 63635, "BSTAR": 0.0031475615, "MEAN_MOTION_DOT": 6.393e-05, "MEAN_MOTION_DDOT": 0}, "tle": {"line1": "1 31491U 99025BWE 25340.20802540  .00006393  00000+0  31476-2 0  9991", "line2": "2 31491  99.3042 248.5122 0053262 286.6061  72.9267 14.17185890636358"}}, "geometry": {"type": "Point", "coordinates": [-79.67385130591745, -71.56863550186328]}}, {"type": "Feature", "properties": {"norad_id": 31492, "name": "FENGYUN 1C DEB", "group": "fengyun-1c-debris", "lat": 73.3957318755629, "lon": 116.57404225506477, "alt_km": 625.4091030852123, "timestamp": "2025-12-08T10:52:03.230318+00:00", "meta": {"OBJECT_NAME": "FENGYUN 1C DEB", "OBJECT_ID": "1999-025BWF", "EPOCH": "2025-12-07T05:07:56.495712", "MEAN_MOTION": 14.70441555, "ECCENTRICITY": 0.00643844, "INCLINATION": 98.857, "RA_OF_ASC_NODE": 146.7573, "ARG_OF_PERICENTER": 26.013, "MEAN_ANOMALY": 334.4286, "EPHEMERIS_TYPE": 0, "CLASSIFICATION_TYPE": "U", "NORAD_CAT_ID": 31492, "ELEMENT_SET_NO": 999, "REV_AT_EPOCH": 96425, "BSTAR": 0.0048351392, "MEAN_MOTION_DOT": 0.00030307, "MEAN_MOTION_DDOT": 0}, "tle": {"line1": "1 31492U 99025BWF 25341.21384833  .00030307  00000+0  48351-2 0  9996", "line2": "2 31492  98.8570 146.7573 0064384  26.0130 334.4286 14.70441555964250"}}, "geometry": {"type": "Point", "coordinates": [116.57404225506477, 73.3957318755629]}}, {"type": "Feature", "properties": {"norad_id": 31493, "name": "FENGYUN 1C DEB", "group": "fengyun-1c-debris", "lat": 34.52044810956232, "lon": 115.01056920728935, "alt_km": 852.3480720131747, "timestamp": "2025-12-08T10:52:03.230328+00:00", "meta": {"OBJECT_NAME": "FENGYUN 1C DEB", "OBJECT_ID": "1999-025BWG", "EPOCH": "2025-12-07T01:24:57.886848", "MEAN_MOTION": 13.9295199, "ECCENTRICITY": 0.01169656, "INCLINATION": 100.1356, "RA_OF_ASC_NODE": 286.4188, "ARG_OF_PERICENTER": 190.7447, "MEAN_ANOMALY": 169.1208, "EPHEMERIS_TYPE": 0, "CLASSIFICATION_TYPE": "U", "NORAD_CAT_ID": 31493, "ELEMENT_SET_NO": 999, "REV_AT_EPOCH": 59787, "BSTAR": 0.0012635857, "MEAN_MOTION_DOT": 1.684e-05, "MEAN_MOTION_DDOT": 0}, "tle": {"line1": "1 31493U 99025BWG 25341.05900332  .00001684  00000+0  12636-2 0  9990", "line2": "2 31493 100.1356 286.4188 0116965 190.7447 169.1208 13.92951990597876"}}, "geometry": {"type": "Point", "coordinates": [115.01056920728935, 34.52044810956232]}}, {"type": "Feature", "properties": {"norad_id": 31495, "name": "FENGYUN 1C DEB", "group": "fengyun-1c-debris", "lat": 43.67238633059864, "lon": 44.252485331935716, "alt_km": 780.4853458330035, "timestamp": "2025-12-08T10:52:03.230338+00:00", "meta": {"OBJECT_NAME": "FENGYUN 1C DEB", "OBJECT_ID": "1999-025BWJ", "EPOCH": "2025-12-07T22:28:20.489664", "MEAN_MOTION": 14.29162078, "ECCENTRICITY": 0.00252841, "INCLINATION": 99.1195, "RA_OF_ASC_NODE": 214.8914, "ARG_OF_PERICENTER": 192.4821, "MEAN_ANOMALY": 167.5736, "EPHEMERIS_TYPE": 0, "CLASSIFICATION_TYPE": "U", "NORAD_CAT_ID": 31495, "ELEMENT_SET_NO": 999, "REV_AT_EPOCH": 63322, "BSTAR": 0.0017959219, "MEAN_MOTION_DOT": 4.528e-05, "MEAN_MOTION_DDOT": 0}, "tle": {"line1": "1 31495U 99025BWJ 25341.93634826  .00004528  00000+0  17959-2 0  9994", "line2": "2 31495  99.1195 214.8914 0025284 192.4821 167.5736 14.29162078633226"}}, "geometry": {"type": "Point", "coordinates": [44.252485331935716, 43.67238633059864]}}, {"type": "Feature", "properties": {"norad_id": 31497, "name": "FENGYUN 1C DEB", "group": "fengyun-1c-debris", "lat": 42.08053545663854, "lon": 153.75247270217443, "alt_km": 850.6912032385208, "timestamp": "2025-12-08T10:52:03.230349+00:00", "meta": {"OBJECT_NAME": "FENGYUN 1C DEB", "OBJECT_ID": "1999-025BWL", "EPOCH": "2025-12-03T05:08:39.245568", "MEAN_MOTION": 14.39191841, "ECCENTRICITY": 0.0168475, "INCLINATION": 98.3696, "RA_OF_ASC_NODE": 320.9979, "ARG_OF_PERICENTER": 11.741, "MEAN_ANOMALY": 358.9016, "EPHEMERIS_TYPE": 0, "CLASSIFICATION_TYPE": "U", "NORAD_CAT_ID": 31497, "ELEMENT_SET_NO": 999, "REV_AT_EPOCH": 97418, "BSTAR": 0.00041155, "MEAN_MOTION_DOT": 1.457e-05, "MEAN_MOTION_DDOT": 0}, "tle": {"line1": "1 31497U 99025BWL 25337.21434312  .00001457  00000+0  41155-3 0  9994", "line2": "2 31497  98.3696 320.9979 0168475  11.7410 358.9016 14.39191841974183"}}, "geometry": {"type": "Point", "coordinates": [153.75247270217443, 42.08053545663854]}}]}